SL-8 R/B                
1 15483U 85006B   26197.25953681  .00000117  00000+0  47650-4 0  9998
2 15483  74.0454  24.5622 0019253 267.4503 265.7838 14.37845674172508
SL-12 R/B(2)            
1 15772U 85042D   26197.21990450  .00000035  00000+0  37130-4 0  9991
2 15772  71.1066 176.1765 0037347 284.6812 164.4938 14.22010987132660
SL-14 R/B               
1 15945U 85069B   26197.18098737  .00000206  00000+0  20420-4 0  9999
2 15945  82.5261 264.0992 0020095 124.2713 236.0410 14.86535437191922
SL-16 R/B               
1 16182U 85097B   26197.21960973  .00000193  00000+0  12059-3 0  9991
2 16182  71.0007 229.9560 0005689  49.6558  16.9989 14.16613220105434
SL-14 R/B               
1 16496U 86006B   26197.25680309  .00000234  00000+0  21995-4 0  9992
2 16496  82.5283 138.7587 0075559 205.3083 154.4427 14.86968741168317
COSMOS 1743             
1 16719U 86034A   26197.24165615  .00036404  00000+0  30587-3 0  9992
2 16719  82.5281 297.7785 0005449 173.2815 186.8521 15.69701370200345
SL-14 R/B               
1 16792U 86046B   26197.31584904  .00000223  00000+0  22801-4 0  9991
2 16792  82.4840 318.6520 0023625 159.3813 200.8362 14.85690998145501
SL-14 R/B               
1 16882U 86055B   26196.91277220  .00000210  00000+0  21327-4 0  9994
2 16882  82.5204   6.1216 0017309 267.6789 205.7872 14.85740566138402
AJISAI (EGS)            
1 16908U 86061A   26197.30683286 -.00000087  00000+0  69987-4 0  9994
2 16908  50.0102  57.8533 0011082 254.7270 264.2391 12.44516669484012
SL-14 R/B               
1 17567U 87024B   26197.30249126  .00000226  00000+0  22817-4 0  9992
2 17567  82.5298 331.8832 0017912 190.0247 170.0615 14.86232120107235
COSMOS 1833             
1 17589U 87027A   26197.06108438  .00000072  00000+0  64053-4 0  9999
2 17589  70.9212  56.1802 0024294   7.3148 352.8322 14.13066857 28454
SL-16 R/B               
1 17590U 87027B   26197.22618938  .00000153  00000+0  99551-4 0  9991
2 17590  71.0033   5.6331 0007146 280.5416  79.4903 14.17173777 33553
SL-14 R/B               
1 17912U 87038B   26197.02689247  .00000208  00000+0  21208-4 0  9995
2 17912  82.5013 175.9066 0020848  99.6497 260.7075 14.85461792 98282
COSMOS 1844             
1 17973U 87041A   26197.17044057  .00000055  00000+0  53712-4 0  9991
2 17973  70.8998 123.1728 0031271 193.8834 166.1431 14.14580965 21754
SL-14 R/B               
1 18153U 87055B   26197.18314895  .00000176  00000+0  17413-4 0  9990
2 18153  82.4970 227.8937 0019363 311.6536  48.3021 14.85727307 89015
COSMOS 1867             
1 18187U 87060A   26197.26520424 -.00000073  00000+0  10085-4 0  9994
2 18187  65.0118 306.6235 0017178 282.0210  77.8949 14.31518577 38346
SL-14 R/B               
1 18749U 88001B   26197.11988046  .00000199  00000+0  20153-4 0  9991
2 18749  82.5119  74.5526 0018243 168.8069 191.3557 14.85627068 61096
COSMOS 1933             
1 18958U 88020A   26197.22374738  .00001874  00000+0  88307-4 0  9999
2 18958  82.5142 123.6795 0005936 104.8171 255.3722 15.18891947 69737
SL-3 R/B                
1 19046U 88032B   26197.25686051  .00001967  00000+0  91045-4 0  9994
2 19046  97.5275 180.2748 0026602 142.1482 218.1631 15.21035807 71647
SL-16 R/B               
1 19120U 88039B   26197.29215787 -.00000050  00000+0 -10646-5 0  9995
2 19120  71.0126 156.6154 0020559 147.6137 212.6255 14.19631425976630
COSMOS 1953             
1 19210U 88050A   26197.05379981  .00003837  00000+0  12938-3 0  9997
2 19210  82.5059  28.9127 0011443  37.3060 322.8973 15.30344243 57404
SL-8 R/B                
1 19257U 88053B   26197.20512442  .00000110  00000+0  44051-4 0  9992
2 19257  74.0457 235.5673 0019770  20.8123  41.7486 14.38978569995085
COSMOS 1975             
1 19573U 88093A   26197.26736419  .00003243  00000+0  11142-3 0  9999
2 19573  82.5201 348.4399 0012501  79.1605 281.1041 15.29669102 39057
SL-14 R/B               
1 19574U 88093B   26197.22630914  .00000185  00000+0  18407-4 0  9993
2 19574  82.5316 281.3841 0019931 336.8096  52.8603 14.85760375 20101
SL-16 R/B               
1 19650U 88102B   26197.17721041 -.00000059  00000+0 -56167-5 0  9993
2 19650  70.9976 241.1408 0014250 183.9769 176.1243 14.16166576945089
INTERCOSMOS 24          
1 20261U 89080A   26197.00418068  .00000123  00000+0  32334-4 0  9992
2 20261  82.6050  20.8875 1187145 355.0684   3.9493 12.59692228682956
SL-14 R/B               
1 20262U 89080C   26197.20262927  .00000068  00000+0  19565-4 0  9995
2 20262  82.5933  90.6648 1228734 250.9855  95.4394 12.50578595676211
DELTA 1 R/B             
1 20323U 89089B   26197.11869984  .00000118  00000+0  37609-4 0  9993
2 20323  97.0635  24.0470 0070629  77.1251 283.7825 14.50748100914353
ARIANE 40 R/B           
1 20443U 90005H   26197.16017022  .00000095  00000+0  43467-4 0  9992
2 20443  98.2944 253.8730 0010335 171.1986 188.9386 14.39940953911296
DELTA 2 R/B(1)          
1 20453U 90008B   26196.97303539  .00082960  00000+0  50504-3 0  9995
2 20453  35.5991  42.3909 0058628  23.4105 336.9288 15.73725321946238
