OBJECT_NAME,OBJECT_ID,EPOCH,MEAN_MOTION,ECCENTRICITY,INCLINATION,RA_OF_ASC_NODE,ARG_OF_PERICENTER,MEAN_ANOMALY,EPHEMERIS_TYPE,CLASSIFICATION_TYPE,NORAD_CAT_ID,ELEMENT_SET_NO,REV_AT_EPOCH,BSTAR,MEAN_MOTION_DOT,MEAN_MOTION_DDOT
SL-8 R/B,1985-006B,2026-07-16T06:13:43.980384,14.37845674,.00192539,74.0454,24.5622,267.4503,265.7838,0,U,15483,999,17250,.4764981E-4,.117E-5,0
SL-12 R/B(2),1985-042D,2026-07-16T05:16:39.748800,14.22010987,.00373472,71.1066,176.1765,284.6812,164.4938,0,U,15772,999,13266,.37129877E-4,.35E-6,0
SL-14 R/B,1985-069B,2026-07-16T04:20:37.308768,14.86535437,.00200951,82.5261,264.0992,124.2713,236.0410,0,U,15945,999,19192,.20419968E-4,.206E-5,0
SL-16 R/B,1985-097B,2026-07-16T05:16:14.280672,14.16613220,.00056891,71.0007,229.9560,49.6558,16.9989,0,U,16182,999,10543,.12058817E-3,.193E-5,0
SL-14 R/B,1986-006B,2026-07-16T06:09:47.786976,14.86968741,.00755592,82.5283,138.7587,205.3083,154.4427,0,U,16496,999,16831,.21994855E-4,.234E-5,0
COSMOS 1743,1986-034A,2026-07-16T05:47:59.091360,15.69701370,.00054498,82.5281,297.7785,173.2815,186.8521,0,U,16719,999,20034,.30586526E-3,.36404E-3,0
SL-14 R/B,1986-046B,2026-07-16T07:34:49.357056,14.85690998,.0023625,82.4840,318.6520,159.3813,200.8362,0,U,16792,999,14550,.22800735E-4,.223E-5,0
SL-14 R/B,1986-055B,2026-07-15T21:54:23.518080,14.85740566,.0017309,82.5204,6.1216,267.6789,205.7872,0,U,16882,999,13840,.21327E-4,.21E-5,0
AJISAI (EGS),1986-061A,2026-07-16T07:21:50.359104,12.44516669,.00110827,50.0102,57.8533,254.7270,264.2391,0,U,16908,999,48401,.69987017E-4,-.87E-6,0
SL-14 R/B,1987-024B,2026-07-16T07:15:35.244864,14.86232120,.0017912,82.5298,331.8832,190.0247,170.0615,0,U,17567,999,10723,.22817349E-4,.226E-5,0
COSMOS 1833,1987-027A,2026-07-16T01:27:57.690432,14.13066857,.00242942,70.9212,56.1802,7.3148,352.8322,0,U,17589,999,2845,.64052831E-4,.72E-6,0
SL-16 R/B,1987-027B,2026-07-16T05:25:42.762432,14.17173777,.00071464,71.0033,5.6331,280.5416,79.4903,0,U,17590,999,3355,.99550757E-4,.153E-5,0
SL-14 R/B,1987-038B,2026-07-16T00:38:43.509408,14.85461792,.00208483,82.5013,175.9066,99.6497,260.7075,0,U,17912,999,9828,.21207932E-4,.208E-5,0
COSMOS 1844,1987-041A,2026-07-16T04:05:26.065248,14.14580965,.00312716,70.8998,123.1728,193.8834,166.1431,0,U,17973,999,2175,.53712154E-4,.55E-6,0
SL-14 R/B,1987-055B,2026-07-16T04:23:44.069280,14.85727307,.00193634,82.4970,227.8937,311.6536,48.3021,0,U,18153,999,8901,.17413397E-4,.176E-5,0
COSMOS 1867,1987-060A,2026-07-16T06:21:53.646336,14.31518577,.00171787,65.0118,306.6235,282.0210,77.8949,0,U,18187,999,3834,.10084625E-4,-.73E-6,0
SL-14 R/B,1988-001B,2026-07-16T02:52:37.671744,14.85627068,.00182432,82.5119,74.5526,168.8069,191.3557,0,U,18749,999,6109,.20152688E-4,.199E-5,0
COSMOS 1933,1988-020A,2026-07-16T05:22:11.773632,15.18891947,.00059364,82.5142,123.6795,104.8171,255.3722,0,U,18958,999,6973,.8830686E-4,.1874E-4,0
SL-3 R/B,1988-032B,2026-07-16T06:09:52.748064,15.21035807,.00266028,97.5275,180.2748,142.1482,218.1631,0,U,19046,999,7164,.91044601E-4,.1967E-4,0
SL-16 R/B,1988-039B,2026-07-16T07:00:42.439968,14.19631425,.00205599,71.0126,156.6154,147.6137,212.6255,0,U,19120,999,97663,-.106457E-5,-.5E-6,0
COSMOS 1953,1988-050A,2026-07-16T01:17:28.303584,15.30344243,.00114431,82.5059,28.9127,37.3060,322.8973,0,U,19210,999,5740,.12938285E-3,.3837E-4,0
SL-8 R/B,1988-053B,2026-07-16T04:55:22.749888,14.38978569,.00197701,74.0457,235.5673,20.8123,41.7486,0,U,19257,999,99508,.44050529E-4,.11E-5,0
COSMOS 1975,1988-093A,2026-07-16T06:25:00.266016,15.29669102,.00125014,82.5201,348.4399,79.1605,281.1041,0,U,19573,999,3905,.11141653E-3,.3243E-4,0
SL-14 R/B,1988-093B,2026-07-16T05:25:53.109696,14.85760375,.00199315,82.5316,281.3841,336.8096,52.8603,0,U,19574,999,2010,.18407063E-4,.185E-5,0
SL-16 R/B,1988-102B,2026-07-16T04:15:10.979424,14.16166576,.00142506,70.9976,241.1408,183.9769,176.1243,0,U,19650,999,94508,-.5616746E-5,-.59E-6,0
INTERCOSMOS 24,1989-080A,2026-07-16T00:06:01.210752,12.59692228,.11871456,82.6050,20.8875,355.0684,3.9493,0,U,20261,999,68295,.32334255E-4,.123E-5,0
SL-14 R/B,1989-080C,2026-07-16T04:51:47.168928,12.50578595,.12287342,82.5933,90.6648,250.9855,95.4394,0,U,20262,999,67621,.19565221E-4,.68E-6,0
DELTA 1 R/B,1989-089B,2026-07-16T02:50:55.666176,14.50748100,.00706299,97.0635,24.0470,77.1251,283.7825,0,U,20323,999,91435,.37608728E-4,.118E-5,0
ARIANE 40 R/B,1990-005H,2026-07-16T03:50:38.707008,14.39940953,.0010335,98.2944,253.8730,171.1986,188.9386,0,U,20443,999,91129,.43466971E-4,.95E-6,0
DELTA 2 R/B(1),1990-008B,2026-07-15T23:21:10.257696,15.73725321,.00586283,35.5991,42.3909,23.4105,336.9288,0,U,20453,999,94623,.50504258E-3,.8296E-3,0
